OBJECT B                
1 51825U 22019B   24177.89316918  .00012188  00000+0  53223-3 0  9998
2 51825  97.4281 249.1304 0014219 202.3258 157.7361 15.22176376128557
